STARLINK-5400           
1 54861U 22177AT  26039.03521618  .00000506  00000+0  52555-4 0  9995
2 54861  43.0040 281.5313 0001322 270.8442  89.2248 15.02538679172644
STARLINK-5403           
1 54862U 22177AU  26039.05852998 -.00006142  00000+0 -43969-3 0  9998
2 54862  43.0031 281.7162 0001611 254.8684 105.1980 15.02559711172641
STARLINK-5405           
1 54863U 22177AV  26039.09393972 -.00000817  00000+0 -45414-4 0  9996
2 54863  43.0028 281.1111 0001174 270.9355  89.1353 15.02526872172652
STARLINK-5359           
1 54864U 22177AW  26039.01524895 -.00001316  00000+0 -82351-4 0  9995
2 54864  43.0045 281.3755 0001417 269.3364  90.7316 15.02535031172643
STARLINK-5411           
1 54865U 22177AX  26039.03078079  .00000042  00000+0  18167-4 0  9993
2 54865  43.0044 281.4991 0001300 270.2415  89.8278 15.02535793172646
STARLINK-5398           
1 54866U 22177AY  26039.00525303 -.00000482  00000+0 -20624-4 0  9999
2 54866  43.0048 281.3015 0001323 265.5140  94.5551 15.02536186172648
STARLINK-5396           
1 54867U 22177AZ  26039.08394054  .00000296  00000+0  37002-4 0  9994
2 54867  43.0018 281.0330 0001299 260.8736  99.1959 15.02534601172658
STARLINK-5379           
1 54868U 22177BA  26039.00080046  .00001191  00000+0  10319-3 0  9996
2 54868  43.0033 281.2724 0001386 262.8085  97.2600 15.02544976172648
STARLINK-5402           
1 54869U 22177BB  26039.07726532  .00001775  00000+0  14639-3 0  9998
2 54869  43.0039 280.9846 0001463 253.9172 106.1509 15.02549174172654
STARLINK-5401           
1 54870U 22177BC  26038.07233828  .00001385  00000+0  11756-3 0  9994
2 54870  43.0068 286.3453 0001377 267.1600  92.9085 15.02541206172502
STARLINK-5397           
1 54871U 22177BD  26039.07838966  .00000180  00000+0  28397-4 0  9992
2 54871  43.0036 280.9955 0001452 257.6098 102.4582 15.02534018172652
STARLINK-5091           
1 54873U 22177BF  26039.06396137  .00000809  00000+0  74941-4 0  9996
2 54873  43.0044 280.8854 0001458 265.6461  94.4214 15.02536025172651
STARLINK-5277           
1 55269U 23010A   26039.24700139 -.00001941  00000+0 -15503-3 0  9992
2 55269  70.0000 118.7768 0003431 275.3832  84.6935 14.98302433168653
STARLINK-5306           
1 55271U 23010C   26039.25114746  .00000786  00000+0  73667-4 0  9999
2 55271  70.0003 118.7921 0003070 266.4586  93.6222 14.98326875168370
STARLINK-5310           
1 55272U 23010D   26039.23443285  .00002609  00000+0  22628-3 0  9997
2 55272  69.9990 118.7363 0003827 281.3293  78.7436 14.98345109168376
STARLINK-5291           
1 55273U 23010E   26039.27617516 -.00000444  00000+0 -29453-4 0  9993
2 55273  69.9991 118.4820 0003701 271.6285  88.4450 14.98322287168384
