[{"OBJECT_NAME":"STARLINK-5400","OBJECT_ID":"2022-177AT","EPOCH":"2026-02-08T00:50:42.677952","MEAN_MOTION":15.02538679,"ECCENTRICITY":0.00013229,"INCLINATION":43.004,"RA_OF_ASC_NODE":281.5313,"ARG_OF_PERICENTER":270.8442,"MEAN_ANOMALY":89.2248,"EPHEMERIS_TYPE":0,"CLASSIFICATION_TYPE":"U","NORAD_CAT_ID":54861,"ELEMENT_SET_NO":999,"REV_AT_EPOCH":17264,"BSTAR":5.2554806e-5,"MEAN_MOTION_DOT":5.06e-6,"MEAN_MOTION_DDOT":0},{"OBJECT_NAME":"STARLINK-5403","OBJECT_ID":"2022-177AU","EPOCH":"2026-02-08T01:24:16.990272","MEAN_MOTION":15.02559711,"ECCENTRICITY":0.00016114,"INCLINATION":43.0031,"RA_OF_ASC_NODE":281.7162,"ARG_OF_PERICENTER":254.8684,"MEAN_ANOMALY":105.198,"EPHEMERIS_TYPE":0,"CLASSIFICATION_TYPE":"U","NORAD_CAT_ID":54862,"ELEMENT_SET_NO":999,"REV_AT_EPOCH":17264,"BSTAR":-0.00043968578,"MEAN_MOTION_DOT":-6.142e-5,"MEAN_MOTION_DDOT":0},{"OBJECT_NAME":"STARLINK-5405","OBJECT_ID":"2022-177AV","EPOCH":"2026-02-08T02:15:16.391808","MEAN_MOTION":15.02526872,"ECCENTRICITY":0.00011748,"INCLINATION":43.0028,"RA_OF_ASC_NODE":281.1111,"ARG_OF_PERICENTER":270.9355,"MEAN_ANOMALY":89.1353,"EPHEMERIS_TYPE":0,"CLASSIFICATION_TYPE":"U","NORAD_CAT_ID":54863,"ELEMENT_SET_NO":999,"REV_AT_EPOCH":17265,"BSTAR":-4.5414049e-5,"MEAN_MOTION_DOT":-8.17e-6,"MEAN_MOTION_DDOT":0},{"OBJECT_NAME":"STARLINK-5359","OBJECT_ID":"2022-177AW","EPOCH":"2026-02-08T00:21:57.509280","MEAN_MOTION":15.02535031,"ECCENTRICITY":0.0001417,"INCLINATION":43.0045,"RA_OF_ASC_NODE":281.3755,"ARG_OF_PERICENTER":269.3364,"MEAN_ANOMALY":90.7316,"EPHEMERIS_TYPE":0,"CLASSIFICATION_TYPE":"U","NORAD_CAT_ID":54864,"ELEMENT_SET_NO":999,"REV_AT_EPOCH":17264,"BSTAR":-8.2351487e-5,"MEAN_MOTION_DOT":-1.316e-5,"MEAN_MOTION_DDOT":0},{"OBJECT_NAME":"STARLINK-5411","OBJECT_ID":"2022-177AX","EPOCH":"2026-02-08T00:44:19.460256","MEAN_MOTION":15.02535793,"ECCENTRICITY":0.00013009,"INCLINATION":43.0044,"RA_OF_ASC_NODE":281.4991,"ARG_OF_PERICENTER":270.2415,"MEAN_ANOMALY":89.8278,"EPHEMERIS_TYPE":0,"CLASSIFICATION_TYPE":"U","NORAD_CAT_ID":54865,"ELEMENT_SET_NO":999,"REV_AT_EPOCH":17264,"BSTAR":1.8166924e-5,"MEAN_MOTION_DOT":4.2e-7,"MEAN_MOTION_DDOT":0},{"OBJECT_NAME":"STARLINK-5398","OBJECT_ID":"2022-177AY","EPOCH":"2026-02-08T00:07:33.861792","MEAN_MOTION":15.02536186,"ECCENTRICITY":0.0001323,"INCLINATION":43.0048,"RA_OF_ASC_NODE":281.3015,"ARG_OF_PERICENTER":265.514,"MEAN_ANOMALY":94.5551,"EPHEMERIS_TYPE":0,"CLASSIFICATION_TYPE":"U","NORAD_CAT_ID":54866,"ELEMENT_SET_NO":999,"REV_AT_EPOCH":17264,"BSTAR":-2.0624042e-5,"MEAN_MOTION_DOT":-4.82e-6,"MEAN_MOTION_DDOT":0},{"OBJECT_NAME":"STARLINK-5396","OBJECT_ID":"2022-177AZ","EPOCH":"2026-02-08T02:00:52.462656","MEAN_MOTION":15.02534601,"ECCENTRICITY":0.00012995,"INCLINATION":43.0018,"RA_OF_ASC_NODE":281.033,"ARG_OF_PERICENTER":260.8736,"MEAN_ANOMALY":99.1959,"EPHEMERIS_TYPE":0,"CLASSIFICATION_TYPE":"U","NORAD_CAT_ID":54867,"ELEMENT_SET_NO":999,"REV_AT_EPOCH":17265,"BSTAR":3.7001505e-5,"MEAN_MOTION_DOT":2.96e-6,"MEAN_MOTION_DDOT":0},{"OBJECT_NAME":"STARLINK-5379","OBJECT_ID":"2022-177BA","EPOCH":"2026-02-08T00:01:09.159744","MEAN_MOTION":15.02544976,"ECCENTRICITY":0.00013866,"INCLINATION":43.0033,"RA_OF_ASC_NODE":281.2724,"ARG_OF_PERICENTER":262.8085,"MEAN_ANOMALY":97.26,"EPHEMERIS_TYPE":0,"CLASSIFICATION_TYPE":"U","NORAD_CAT_ID":54868,"ELEMENT_SET_NO":999,"REV_AT_EPOCH":17264,"BSTAR":0.00010318769,"MEAN_MOTION_DOT":1.191e-5,"MEAN_MOTION_DDOT":0},{"OBJECT_NAME":"STARLINK-5402","OBJECT_ID":"2022-177BB","EPOCH":"2026-02-08T01:51:15.723648","MEAN_MOTION":15.02549174,"ECCENTRICITY":0.00014637,"INCLINATION":43.0039,"RA_OF_ASC_NODE":280.9846,"ARG_OF_PERICENTER":253.9172,"MEAN_ANOMALY":106.1509,"EPHEMERIS_TYPE":0,"CLASSIFICATION_TYPE":"U","NORAD_CAT_ID":54869,"ELEMENT_SET_NO":999,"REV_AT_EPOCH":17265,"BSTAR":0.00014638967,"MEAN_MOTION_DOT":1.775e-5,"MEAN_MOTION_DDOT":0},{"OBJECT_NAME":"STARLINK-5401","OBJECT_ID":"2022-177BC","EPOCH":"2026-02-07T01:44:10.027392","MEAN_MOTION":15.02541206,"ECCENTRICITY":0.00013773,"INCLINATION":43.0068,"RA_OF_ASC_NODE":286.3453,"ARG_OF_PERICENTER":267.16,"MEAN_ANOMALY":92.9085,"EPHEMERIS_TYPE":0,"CLASSIFICATION_TYPE":"U","NORAD_CAT_ID":54870,"ELEMENT_SET_NO":999,"REV_AT_EPOCH":17250,"BSTAR":0.00011756171,"MEAN_MOTION_DOT":1.385e-5,"MEAN_MOTION_DDOT":0},{"OBJECT_NAME":"STARLINK-5397","OBJECT_ID":"2022-177BD","EPOCH":"2026-02-08T01:52:52.866624","MEAN_MOTION":15.02534018,"ECCENTRICITY":0.00014522,"INCLINATION":43.0036,"RA_OF_ASC_NODE":280.9955,"ARG_OF_PERICENTER":257.6098,"MEAN_ANOMALY":102.4582,"EPHEMERIS_TYPE":0,"CLASSIFICATION_TYPE":"U","NORAD_CAT_ID":54871,"ELEMENT_SET_NO":999,"REV_AT_EPOCH":17265,"BSTAR":2.8397327e-5,"MEAN_MOTION_DOT":1.8e-6,"MEAN_MOTION_DDOT":0},{"OBJECT_NAME":"STARLINK-5091","OBJECT_ID":"2022-177BF","EPOCH":"2026-02-08T01:32:06.262368","MEAN_MOTION":15.02536025,"ECCENTRICITY":0.00014587,"INCLINATION":43.0044,"RA_OF_ASC_NODE":280.8854,"ARG_OF_PERICENTER":265.6461,"MEAN_ANOMALY":94.4214,"EPHEMERIS_TYPE":0,"CLASSIFICATION_TYPE":"U","NORAD_CAT_ID":54873,"ELEMENT_SET_NO":999,"REV_AT_EPOCH":17265,"BSTAR":7.4940834e-5,"MEAN_MOTION_DOT":8.09e-6,"MEAN_MOTION_DDOT":0},{"OBJECT_NAME":"STARLINK-5277","OBJECT_ID":"2023-010A","EPOCH":"2026-02-08T05:55:40.920096","MEAN_MOTION":14.98302433,"ECCENTRICITY":0.00034314,"INCLINATION":70,"RA_OF_ASC_NODE":118.7768,"ARG_OF_PERICENTER":275.3832,"MEAN_ANOMALY":84.6935,"EPHEMERIS_TYPE":0,"CLASSIFICATION_TYPE":"U","NORAD_CAT_ID":55269,"ELEMENT_SET_NO":999,"REV_AT_EPOCH":16865,"BSTAR":-0.00015502924,"MEAN_MOTION_DOT":-1.941e-5,"MEAN_MOTION_DDOT":0},{"OBJECT_NAME":"STARLINK-5306","OBJECT_ID":"2023-010C","EPOCH":"2026-02-08T06:01:39.140544","MEAN_MOTION":14.98326875,"ECCENTRICITY":0.00030701,"INCLINATION":70.0003,"RA_OF_ASC_NODE":118.7921,"ARG_OF_PERICENTER":266.4586,"MEAN_ANOMALY":93.6222,"EPHEMERIS_TYPE":0,"CLASSIFICATION_TYPE":"U","NORAD_CAT_ID":55271,"ELEMENT_SET_NO":999,"REV_AT_EPOCH":16837,"BSTAR":7.366668e-5,"MEAN_MOTION_DOT":7.86e-6,"MEAN_MOTION_DDOT":0},{"OBJECT_NAME":"STARLINK-5310","OBJECT_ID":"2023-010D","EPOCH":"2026-02-08T05:37:34.998240","MEAN_MOTION":14.98345109,"ECCENTRICITY":0.00038276,"INCLINATION":69.999,"RA_OF_ASC_NODE":118.7363,"ARG_OF_PERICENTER":281.3293,"MEAN_ANOMALY":78.7436,"EPHEMERIS_TYPE":0,"CLASSIFICATION_TYPE":"U","NORAD_CAT_ID":55272,"ELEMENT_SET_NO":999,"REV_AT_EPOCH":16837,"BSTAR":0.00022627995,"MEAN_MOTION_DOT":2.609e-5,"MEAN_MOTION_DDOT":0},{"OBJECT_NAME":"STARLINK-5291","OBJECT_ID":"2023-010E","EPOCH":"2026-02-08T06:37:41.533824","MEAN_MOTION":14.98322287,"ECCENTRICITY":0.00037019,"INCLINATION":69.9991,"RA_OF_ASC_NODE":118.482,"ARG_OF_PERICENTER":271.6285,"MEAN_ANOMALY":88.445,"EPHEMERIS_TYPE":0,"CLASSIFICATION_TYPE":"U","NORAD_CAT_ID":55273,"ELEMENT_SET_NO":999,"REV_AT_EPOCH":16838,"BSTAR":-2.9452859e-5,"MEAN_MOTION_DOT":-4.44e-6,"MEAN_MOTION_DDOT":0}]
